{
    "links": {
        "self": "http://www.neowsapp.com/rest/v1/neo/54016189?api_key=iIulBulltgU6a56xZRHN4H3l9WmuAYTsLGpBGhQ2"
    },
    "id": "54016189",
    "neo_reference_id": "54016189",
    "name": "(2020 ES)",
    "designation": "2020 ES",
    "nasa_jpl_url": "http://ssd.jpl.nasa.gov/sbdb.cgi?sstr=54016189",
    "absolute_magnitude_h": 23.432,
    "estimated_diameter": {
        "kilometers": {
            "estimated_diameter_min": 0.0547211199,
            "estimated_diameter_max": 0.1223601438
        },
        "meters": {
            "estimated_diameter_min": 54.7211198636,
            "estimated_diameter_max": 122.3601438199
        },
        "miles": {
            "estimated_diameter_min": 0.034002117,
            "estimated_diameter_max": 0.0760310449
        },
        "feet": {
            "estimated_diameter_min": 179.5312388932,
            "estimated_diameter_max": 401.44405425
        }
    },
    "is_potentially_hazardous_asteroid": false,
    "close_approach_data": [
        {
            "close_approach_date": "2017-03-25",
            "close_approach_date_full": "2017-Mar-25 06:02",
            "epoch_date_close_approach": 1490421720000,
            "relative_velocity": {
                "kilometers_per_second": "9.2712676012",
                "kilometers_per_hour": "33376.5633642055",
                "miles_per_hour": "20738.8984970531"
            },
            "miss_distance": {
                "astronomical": "0.2546767675",
                "lunar": "99.0692625575",
                "kilometers": "38099101.956485225",
                "miles": "23673684.192437105"
            },
            "orbiting_body": "Earth"
        },
        {
            "close_approach_date": "2020-03-12",
            "close_approach_date_full": "2020-Mar-12 14:32",
            "epoch_date_close_approach": 1584023520000,
            "relative_velocity": {
                "kilometers_per_second": "6.9386771147",
                "kilometers_per_hour": "24979.2376129407",
                "miles_per_hour": "15521.1268378853"
            },
            "miss_distance": {
                "astronomical": "0.1541418753",
                "lunar": "59.9611894917",
                "kilometers": "23059296.222685611",
                "miles": "14328382.2568629918"
            },
            "orbiting_body": "Earth"
        }
    ],
    "orbital_data": {
        "orbit_id": "2",
        "orbit_determination_date": "2020-03-22 06:08:57",
        "first_observation_date": "2020-03-12",
        "last_observation_date": "2020-03-22",
        "data_arc_in_days": 10,
        "observations_used": 32,
        "orbit_uncertainty": "7",
        "minimum_orbit_intersection": ".136356",
        "jupiter_tisserand_invariant": "4.897",
        "epoch_osculation": "2459000.5",
        "eccentricity": ".1617321980687301",
        "semi_major_axis": "1.324651453262978",
        "inclination": "13.25305813968409",
        "ascending_node_longitude": "345.9514947159198",
        "orbital_period": "556.8661985788162",
        "perihelion_distance": "1.110412662051819",
        "perihelion_argument": "214.68710006904",
        "aphelion_distance": "1.538890244474137",
        "perihelion_time": "2458956.574915411137",
        "mean_anomaly": "28.39646308637005",
        "mean_motion": ".646474864013581",
        "equinox": "J2000",
        "orbit_class": {
            "orbit_class_type": "AMO",
            "orbit_class_description": "Near-Earth asteroid orbits similar to that of 1221 Amor",
            "orbit_class_range": "1.017 AU < q (perihelion) < 1.3 AU"
        }
    },
    "is_sentry_object": false
}